[{"OBJECT_NAME":"GEESAT-4 09","OBJECT_ID":"2025-170J","EPOCH":"2026-03-09T21:53:22.612992","MEAN_MOTION":14.81018882,"ECCENTRICITY":0.00223815,"INCLINATION":49.9912,"RA_OF_ASC_NODE":302.3284,"ARG_OF_PERICENTER":11.5994,"MEAN_ANOMALY":348.5454,"EPHEMERIS_TYPE":0,"CLASSIFICATION_TYPE":"U","NORAD_CAT_ID":65127,"ELEMENT_SET_NO":999,"REV_AT_EPOCH":3128,"BSTAR":0.00033132097,"MEAN_MOTION_DOT":2.379e-5,"MEAN_MOTION_DDOT":0},{"OBJECT_NAME":"ALSAT-1","OBJECT_ID":"2002-054A","EPOCH":"2026-03-09T23:09:33.387264","MEAN_MOTION":14.7801747,"ECCENTRICITY":0.00188285,"INCLINATION":98.2462,"RA_OF_ASC_NODE":251.2442,"ARG_OF_PERICENTER":237.1457,"MEAN_ANOMALY":122.7941,"EPHEMERIS_TYPE":0,"CLASSIFICATION_TYPE":"U","NORAD_CAT_ID":27559,"ELEMENT_SET_NO":999,"REV_AT_EPOCH":24859,"BSTAR":0.00020035968,"MEAN_MOTION_DOT":1.395e-5,"MEAN_MOTION_DDOT":0}]
